start=new Date('2022-10-07T00:00:00.000Z').valueOf();
sats=[{"DECAY_DATE":null,"ARG_OF_PERICENTER":"56.9680","LAUNCH_DATE":"2020-10-06","APOAPSIS":"548.322","ELEMENT_SET_NO":"999","CENTER_NAME":"EARTH","TIME_SYSTEM":"UTC","RCS_SIZE":"LARGE","MEAN_MOTION":"15.06417656","REV_AT_EPOCH":"11108","REF_FRAME":"TEME","MEAN_MOTION_DOT":"0.00013651","OBJECT_ID":"2020-070Q","RA_OF_ASC_NODE":"28.4222","INCLINATION":"53.0561","MEAN_ELEMENT_THEORY":"SGP4","MEAN_MOTION_DDOT":"0.0000000000000","TLE_LINE2":"2 46546  53.0561  28.4222 0001678  56.9680 303.1470 15.06417656111083","NORAD_CAT_ID":"46546","CLASSIFICATION_TYPE":"U","FILE":"3594620","GP_ID":"214356777","EPHEMERIS_TYPE":"0","SITE":"AFETR","COUNTRY_CODE":"US","EPOCH":"2022-10-06T14:46:50.358432","OBJECT_TYPE":"PAYLOAD","BSTAR":"0.00093312000000","SEMIMAJOR_AXIS":"6925.294","TLE_LINE1":"1 46546U 20070Q   22279.61586063  .00013651  00000-0  93312-3 0  9998","PERIAPSIS":"545.997","MEAN_ANOMALY":"303.1470","ECCENTRICITY":"0.00016780","OBJECT_NAME":"STARLINK-1697","PERIOD":"95.591"},{"CENTER_NAME":"EARTH","ELEMENT_SET_NO":"999","APOAPSIS":"548.093","ARG_OF_PERICENTER":"49.6564","DECAY_DATE":null,"LAUNCH_DATE":"2020-10-06","OBJECT_ID":"2020-070R","TLE_LINE2":"2 46547  53.0559  28.5817 0001279  49.6564 310.4537 15.06402084111106","NORAD_CAT_ID":"46547","MEAN_ELEMENT_THEORY":"SGP4","MEAN_MOTION_DDOT":"0.0000000000000","RA_OF_ASC_NODE":"28.5817","INCLINATION":"53.0559","MEAN_MOTION":"15.06402084","TIME_SYSTEM":"UTC","RCS_SIZE":"LARGE","MEAN_MOTION_DOT":"0.00000722","REF_FRAME":"TEME","REV_AT_EPOCH":"11110","EPHEMERIS_TYPE":"0","GP_ID":"214332888","EPOCH":"2022-10-06T13:52:23.742048","COUNTRY_CODE":"US","SITE":"AFETR","CLASSIFICATION_TYPE":"U","FILE":"3594444","PERIOD":"95.592","TLE_LINE1":"1 46547U 20070R   22279.57805257  .00000722  00000-0  67361-4 0  9994","SEMIMAJOR_AXIS":"6925.342","OBJECT_TYPE":"PAYLOAD","BSTAR":"0.00006736100000","OBJECT_NAME":"STARLINK-1698","PERIAPSIS":"546.321","ECCENTRICITY":"0.00012790","MEAN_ANOMALY":"310.4537"},{"EPHEMERIS_TYPE":"0","GP_ID":"214357253","EPOCH":"2022-10-06T17:20:45.719232","SITE":"AFETR","COUNTRY_CODE":"US","CLASSIFICATION_TYPE":"U","FILE":"3594620","PERIOD":"95.592","TLE_LINE1":"1 46548U 20070S   22279.72275138  .00000402  00000-0  45893-4 0  9992","OBJECT_TYPE":"PAYLOAD","BSTAR":"0.00004589300000","SEMIMAJOR_AXIS":"6925.342","PERIAPSIS":"546.172","MEAN_ANOMALY":"289.8874","ECCENTRICITY":"0.00014950","OBJECT_NAME":"STARLINK-1699","CENTER_NAME":"EARTH","ELEMENT_SET_NO":"999","APOAPSIS":"548.242","DECAY_DATE":null,"ARG_OF_PERICENTER":"70.2276","LAUNCH_DATE":"2020-10-06","OBJECT_ID":"2020-070S","NORAD_CAT_ID":"46548","TLE_LINE2":"2 46548  53.0574  27.9443 0001495  70.2276 289.8874 15.06402132111109","INCLINATION":"53.0574","RA_OF_ASC_NODE":"27.9443","MEAN_ELEMENT_THEORY":"SGP4","MEAN_MOTION_DDOT":"0.0000000000000","TIME_SYSTEM":"UTC","RCS_SIZE":"LARGE","MEAN_MOTION":"15.06402132","REF_FRAME":"TEME","MEAN_MOTION_DOT":"0.00000402","REV_AT_EPOCH":"11110"},{"MEAN_MOTION_DOT":"0.00005603","REF_FRAME":"TEME","REV_AT_EPOCH":"11108","MEAN_MOTION":"15.06400740","TIME_SYSTEM":"UTC","RCS_SIZE":"LARGE","NORAD_CAT_ID":"46549","TLE_LINE2":"2 46549  53.0553  28.4090 0001413  72.2738 287.8406 15.06400740111085","MEAN_MOTION_DDOT":"0.0000000000000","MEAN_ELEMENT_THEORY":"SGP4","RA_OF_ASC_NODE":"28.4090","INCLINATION":"53.0553","OBJECT_ID":"2020-070T","LAUNCH_DATE":"2020-10-06","ARG_OF_PERICENTER":"72.2738","DECAY_DATE":null,"CENTER_NAME":"EARTH","ELEMENT_SET_NO":"999","APOAPSIS":"548.190","OBJECT_NAME":"STARLINK-1700","PERIAPSIS":"546.233","MEAN_ANOMALY":"287.8406","ECCENTRICITY":"0.00014130","TLE_LINE1":"1 46549U 20070T   22279.61955346  .00005603  00000-0  39476-3 0  9994","SEMIMAJOR_AXIS":"6925.346","OBJECT_TYPE":"PAYLOAD","BSTAR":"0.00039476000000","PERIOD":"95.592","FILE":"3594620","CLASSIFICATION_TYPE":"U","EPOCH":"2022-10-06T14:52:09.418944","COUNTRY_CODE":"US","SITE":"AFETR","EPHEMERIS_TYPE":"0","GP_ID":"214355527"},{"PERIAPSIS":"546.015","MEAN_ANOMALY":"297.8970","ECCENTRICITY":"0.00017090","OBJECT_NAME":"STARLINK-1701","TLE_LINE1":"1 46550U 20070U   22279.60479949 -.00000311  00000-0 -19422-5 0  9999","BSTAR":"-0.00000194220000","OBJECT_TYPE":"PAYLOAD","SEMIMAJOR_AXIS":"6925.334","PERIOD":"95.592","FILE":"3594620","CLASSIFICATION_TYPE":"U","EPOCH":"2022-10-06T14:30:54.675936","SITE":"AFETR","COUNTRY_CODE":"US","EPHEMERIS_TYPE":"0","GP_ID":"214356278","REF_FRAME":"TEME","MEAN_MOTION_DOT":"-0.00000311","REV_AT_EPOCH":"11108","TIME_SYSTEM":"UTC","RCS_SIZE":"LARGE","MEAN_MOTION":"15.06404812","NORAD_CAT_ID":"46550","TLE_LINE2":"2 46550  53.0559  28.4733 0001709  62.2192 297.8970 15.06404812111089","INCLINATION":"53.0559","RA_OF_ASC_NODE":"28.4733","MEAN_ELEMENT_THEORY":"SGP4","MEAN_MOTION_DDOT":"0.0000000000000","OBJECT_ID":"2020-070U","LAUNCH_DATE":"2020-10-06","DECAY_DATE":null,"ARG_OF_PERICENTER":"62.2192","ELEMENT_SET_NO":"999","CENTER_NAME":"EARTH","APOAPSIS":"548.382"},{"MEAN_MOTION_DDOT":"0.0000000000000","MEAN_ELEMENT_THEORY":"SGP4","INCLINATION":"53.0528","RA_OF_ASC_NODE":"359.9424","NORAD_CAT_ID":"46552","TLE_LINE2":"2 46552  53.0528 359.9424 0003226  30.5168 329.6028 15.52360766111429","OBJECT_ID":"2020-070W","REV_AT_EPOCH":"11142","MEAN_MOTION_DOT":"0.00063114","REF_FRAME":"TEME","MEAN_MOTION":"15.52360766","RCS_SIZE":"LARGE","TIME_SYSTEM":"UTC","APOAPSIS":"412.027","CENTER_NAME":"EARTH","ELEMENT_SET_NO":"999","LAUNCH_DATE":"2020-10-06","ARG_OF_PERICENTER":"30.5168","DECAY_DATE":null,"PERIOD":"92.762","OBJECT_NAME":"STARLINK-1649","MEAN_ANOMALY":"329.6028","PERIAPSIS":"407.648","ECCENTRICITY":"0.00032260","SEMIMAJOR_AXIS":"6787.972","OBJECT_TYPE":"PAYLOAD","BSTAR":"0.00101710000000","TLE_LINE1":"1 46552U 20070W   22279.52119728  .00063114  00000-0  10171-2 0  9995","COUNTRY_CODE":"US","SITE":"AFETR","EPOCH":"2022-10-06T12:30:31.444992","GP_ID":"214332022","EPHEMERIS_TYPE":"0","FILE":"3594416","CLASSIFICATION_TYPE":"U"},{"APOAPSIS":"548.369","ELEMENT_SET_NO":"999","CENTER_NAME":"EARTH","ARG_OF_PERICENTER":"42.8501","DECAY_DATE":null,"LAUNCH_DATE":"2020-10-06","OBJECT_ID":"2020-070X","MEAN_ELEMENT_THEORY":"SGP4","MEAN_MOTION_DDOT":"0.0000000000000","RA_OF_ASC_NODE":"358.2400","INCLINATION":"53.0563","NORAD_CAT_ID":"46553","TLE_LINE2":"2 46553  53.0563 358.2400 0001685  42.8501 317.2619 15.06403670111519","MEAN_MOTION":"15.06403670","TIME_SYSTEM":"UTC","RCS_SIZE":"LARGE","REV_AT_EPOCH":"11151","MEAN_MOTION_DOT":"0.00010535","REF_FRAME":"TEME","GP_ID":"214356756","EPHEMERIS_TYPE":"0","COUNTRY_CODE":"US","SITE":"AFETR","EPOCH":"2022-10-06T15:49:12.756288","CLASSIFICATION_TYPE":"U","FILE":"3594620","PERIOD":"95.592","SEMIMAJOR_AXIS":"6925.337","BSTAR":"0.00072499000000","OBJECT_TYPE":"PAYLOAD","TLE_LINE1":"1 46553U 20070X   22279.65917542  .00010535  00000-0  72499-3 0  9991","OBJECT_NAME":"STARLINK-1664","ECCENTRICITY":"0.00016850","PERIAPSIS":"546.035","MEAN_ANOMALY":"317.2619"},{"PERIOD":"95.592","OBJECT_NAME":"STARLINK-1671","PERIAPSIS":"546.138","ECCENTRICITY":"0.00015450","MEAN_ANOMALY":"296.2435","TLE_LINE1":"1 46554U 20070Y   22279.57854668  .00004421  00000-0  31548-3 0  9999","SEMIMAJOR_AXIS":"6925.343","OBJECT_TYPE":"PAYLOAD","BSTAR":"0.00031548000000","EPOCH":"2022-10-06T13:53:06.433152","COUNTRY_CODE":"US","SITE":"AFETR","EPHEMERIS_TYPE":"0","GP_ID":"214356027","FILE":"3594620","CLASSIFICATION_TYPE":"U","TLE_LINE2":"2 46554  53.0557  13.5787 0001545  63.8712 296.2435 15.06401849111297","NORAD_CAT_ID":"46554","MEAN_MOTION_DDOT":"0.0000000000000","MEAN_ELEMENT_THEORY":"SGP4","RA_OF_ASC_NODE":"13.5787","INCLINATION":"53.0557","OBJECT_ID":"2020-070Y","MEAN_MOTION_DOT":"0.00004421","REF_FRAME":"TEME","REV_AT_EPOCH":"11129","MEAN_MOTION":"15.06401849","TIME_SYSTEM":"UTC","RCS_SIZE":"LARGE","ELEMENT_SET_NO":"999","CENTER_NAME":"EARTH","APOAPSIS":"548.278","LAUNCH_DATE":"2020-10-06","ARG_OF_PERICENTER":"63.8712","DECAY_DATE":null},{"FILE":"3593749","CLASSIFICATION_TYPE":"U","COUNTRY_CODE":"US","SITE":"AFETR","EPOCH":"2022-10-06T13:43:09.124896","GP_ID":"214310460","EPHEMERIS_TYPE":"0","OBJECT_NAME":"STARLINK-1676","MEAN_ANOMALY":"300.9390","PERIAPSIS":"546.130","ECCENTRICITY":"0.00015860","SEMIMAJOR_AXIS":"6925.363","BSTAR":"-0.00001824300000","OBJECT_TYPE":"PAYLOAD","TLE_LINE1":"1 46556U 20070AA  22279.57163339 -.00000553  00000-0 -18243-4 0  9991","PERIOD":"95.592","LAUNCH_DATE":"2020-10-06","ARG_OF_PERICENTER":"59.1755","DECAY_DATE":null,"APOAPSIS":"548.327","CENTER_NAME":"EARTH","ELEMENT_SET_NO":"999","REV_AT_EPOCH":"11108","MEAN_MOTION_DOT":"-0.00000553","REF_FRAME":"TEME","MEAN_MOTION":"15.06395198","RCS_SIZE":"LARGE","TIME_SYSTEM":"UTC","MEAN_ELEMENT_THEORY":"SGP4","MEAN_MOTION_DDOT":"0.0000000000000","INCLINATION":"53.0558","RA_OF_ASC_NODE":"28.6078","TLE_LINE2":"2 46556  53.0558  28.6078 0001586  59.1755 300.9390 15.06395198111089","NORAD_CAT_ID":"46556","OBJECT_ID":"2020-070AA"},{"COUNTRY_CODE":"US","SITE":"AFETR","EPOCH":"2022-10-06T13:10:38.688960","GP_ID":"214310697","EPHEMERIS_TYPE":"0","FILE":"3593749","CLASSIFICATION_TYPE":"U","PERIOD":"95.592","OBJECT_NAME":"STARLINK-1679","MEAN_ANOMALY":"298.9838","PERIAPSIS":"546.106","ECCENTRICITY":"0.00016230","SEMIMAJOR_AXIS":"6925.365","BSTAR":"0.00000597030000","OBJECT_TYPE":"PAYLOAD","TLE_LINE1":"1 46557U 20070AB  22279.54905890 -.00000193  00000-0  59703-5 0  9991","APOAPSIS":"548.354","ELEMENT_SET_NO":"999","CENTER_NAME":"EARTH","LAUNCH_DATE":"2020-10-06","ARG_OF_PERICENTER":"61.1314","DECAY_DATE":null,"MEAN_MOTION_DDOT":"0.0000000000000","MEAN_ELEMENT_THEORY":"SGP4","RA_OF_ASC_NODE":"13.7270","INCLINATION":"53.0556","TLE_LINE2":"2 46557  53.0556  13.7270 0001623  61.1314 298.9838 15.06394778111292","NORAD_CAT_ID":"46557","OBJECT_ID":"2020-070AB","REV_AT_EPOCH":"11129","MEAN_MOTION_DOT":"-0.00000193","REF_FRAME":"TEME","MEAN_MOTION":"15.06394778","RCS_SIZE":"LARGE","TIME_SYSTEM":"UTC"}];
